CCSDS_OMM_VERS = 2.0
CREATION_DATE  = 
ORIGINATOR     = 

OBJECT_NAME    = STARLINK-36622
OBJECT_ID      = 2026-022V
CENTER_NAME    = EARTH
REF_FRAME      = TEME
TIME_SYSTEM    = UTC
MEAN_ELEMENT_THEORY = SGP/SGP4

EPOCH          = 2026-02-19T04:00:01.999584
MEAN_MOTION    = 15.75218560
ECCENTRICITY   = .0001397
INCLINATION    = 97.2840
RA_OF_ASC_NODE = 83.2714
ARG_OF_PERICENTER = 79.7250
MEAN_ANOMALY   = 358.7783

EPHEMERIS_TYPE = 0
CLASSIFICATION_TYPE = U
NORAD_CAT_ID   = 67667
ELEMENT_SET_NO = 999
REV_AT_EPOCH   = 391
BSTAR          = -.59283E-3
MEAN_MOTION_DOT = -.87762E-3
MEAN_MOTION_DDOT = 0

CCSDS_OMM_VERS = 2.0
CREATION_DATE  = 
ORIGINATOR     = 

OBJECT_NAME    = STARLINK-36625
OBJECT_ID      = 2026-022W
CENTER_NAME    = EARTH
REF_FRAME      = TEME
TIME_SYSTEM    = UTC
MEAN_ELEMENT_THEORY = SGP/SGP4

EPOCH          = 2026-02-19T04:00:01.999584
MEAN_MOTION    = 15.75200818
ECCENTRICITY   = .0001399
INCLINATION    = 97.2843
RA_OF_ASC_NODE = 83.2752
ARG_OF_PERICENTER = 90.8727
MEAN_ANOMALY   = 355.6370

EPHEMERIS_TYPE = 0
CLASSIFICATION_TYPE = U
NORAD_CAT_ID   = 67668
ELEMENT_SET_NO = 999
REV_AT_EPOCH   = 391
BSTAR          = -.37555E-3
MEAN_MOTION_DOT = -.55807E-3
MEAN_MOTION_DDOT = 0

CCSDS_OMM_VERS = 2.0
CREATION_DATE  = 
ORIGINATOR     = 

OBJECT_NAME    = STARLINK-36639
OBJECT_ID      = 2026-022X
CENTER_NAME    = EARTH
REF_FRAME      = TEME
TIME_SYSTEM    = UTC
MEAN_ELEMENT_THEORY = SGP/SGP4

EPOCH          = 2026-02-19T04:00:01.999584
MEAN_MOTION    = 15.75201883
ECCENTRICITY   = .000144
INCLINATION    = 97.2845
RA_OF_ASC_NODE = 83.2793
ARG_OF_PERICENTER = 92.1345
MEAN_ANOMALY   = 4.3739

EPHEMERIS_TYPE = 0
CLASSIFICATION_TYPE = U
NORAD_CAT_ID   = 67669
ELEMENT_SET_NO = 999
REV_AT_EPOCH   = 391
BSTAR          = -.37286E-3
MEAN_MOTION_DOT = -.55414E-3
MEAN_MOTION_DDOT = 0

CCSDS_OMM_VERS = 2.0
CREATION_DATE  = 
ORIGINATOR     = 

OBJECT_NAME    = STARLINK-36596
OBJECT_ID      = 2026-022Y
CENTER_NAME    = EARTH
REF_FRAME      = TEME
TIME_SYSTEM    = UTC
MEAN_ELEMENT_THEORY = SGP/SGP4

EPOCH          = 2026-02-19T04:00:01.999584
MEAN_MOTION    = 15.75217113
ECCENTRICITY   = .0001414
INCLINATION    = 97.2848
RA_OF_ASC_NODE = 83.2832
ARG_OF_PERICENTER = 94.8587
MEAN_ANOMALY   = 11.6528

EPHEMERIS_TYPE = 0
CLASSIFICATION_TYPE = U
NORAD_CAT_ID   = 67670
ELEMENT_SET_NO = 999
REV_AT_EPOCH   = 391
BSTAR          = -.66738E-3
MEAN_MOTION_DOT = -.9865E-3
MEAN_MOTION_DDOT = 0

CCSDS_OMM_VERS = 2.0
CREATION_DATE  = 
ORIGINATOR     = 

OBJECT_NAME    = STARLINK-36297
OBJECT_ID      = 2026-022Z
CENTER_NAME    = EARTH
REF_FRAME      = TEME
TIME_SYSTEM    = UTC
MEAN_ELEMENT_THEORY = SGP/SGP4

EPOCH          = 2026-02-19T04:00:01.999584
MEAN_MOTION    = 15.75214644
ECCENTRICITY   = .0001242
INCLINATION    = 97.2849
RA_OF_ASC_NODE = 83.2872
ARG_OF_PERICENTER = 79.7084
MEAN_ANOMALY   = 38.7976

EPHEMERIS_TYPE = 0
CLASSIFICATION_TYPE = U
NORAD_CAT_ID   = 67671
ELEMENT_SET_NO = 999
REV_AT_EPOCH   = 391
BSTAR          = -.62876E-3
MEAN_MOTION_DOT = -.92998E-3
MEAN_MOTION_DDOT = 0

CCSDS_OMM_VERS = 2.0
CREATION_DATE  = 
ORIGINATOR     = 

OBJECT_NAME    = STARLINK-36616
OBJECT_ID      = 2026-022AA
CENTER_NAME    = EARTH
REF_FRAME      = TEME
TIME_SYSTEM    = UTC
MEAN_ELEMENT_THEORY = SGP/SGP4

EPOCH          = 2026-02-19T04:00:01.999584
MEAN_MOTION    = 15.75208873
ECCENTRICITY   = .0001207
INCLINATION    = 97.2850
RA_OF_ASC_NODE = 83.2850
ARG_OF_PERICENTER = 87.6196
MEAN_ANOMALY   = 22.8842

EPHEMERIS_TYPE = 0
CLASSIFICATION_TYPE = U
NORAD_CAT_ID   = 67672
ELEMENT_SET_NO = 999
REV_AT_EPOCH   = 391
BSTAR          = -.41425E-3
MEAN_MOTION_DOT = -.61524E-3
MEAN_MOTION_DDOT = 0

CCSDS_OMM_VERS = 2.0
CREATION_DATE  = 
ORIGINATOR     = 

OBJECT_NAME    = COSMOS 2600
OBJECT_ID      = 2026-023A
CENTER_NAME    = EARTH
REF_FRAME      = TEME
TIME_SYSTEM    = UTC
MEAN_ELEMENT_THEORY = SGP/SGP4

EPOCH          = 2026-02-19T04:38:55.380192
MEAN_MOTION    = 15.82910529
ECCENTRICITY   = .0001215
INCLINATION    = 96.6479
RA_OF_ASC_NODE = 126.4135
ARG_OF_PERICENTER = 52.1362
MEAN_ANOMALY   = 308.0018

EPHEMERIS_TYPE = 0
CLASSIFICATION_TYPE = U
NORAD_CAT_ID   = 67674
ELEMENT_SET_NO = 999
REV_AT_EPOCH   = 212
BSTAR          = .25796E-3
MEAN_MOTION_DOT = .54626E-3
MEAN_MOTION_DDOT = 0

CCSDS_OMM_VERS = 2.0
CREATION_DATE  = 
ORIGINATOR     = 

OBJECT_NAME    = 2026-023B
OBJECT_ID      = 2026-023B
CENTER_NAME    = EARTH
REF_FRAME      = TEME
TIME_SYSTEM    = UTC
MEAN_ELEMENT_THEORY = SGP/SGP4

EPOCH          = 2026-02-19T04:32:03.178752
MEAN_MOTION    = 15.22508766
ECCENTRICITY   = .0018009
INCLINATION    = 96.6392
RA_OF_ASC_NODE = 125.2817
ARG_OF_PERICENTER = 196.1193
MEAN_ANOMALY   = 163.9475

EPHEMERIS_TYPE = 0
CLASSIFICATION_TYPE = U
NORAD_CAT_ID   = 67675
ELEMENT_SET_NO = 999
REV_AT_EPOCH   = 204
BSTAR          = .40868E-3
MEAN_MOTION_DOT = .9458E-4
MEAN_MOTION_DDOT = 0

CCSDS_OMM_VERS = 2.0
CREATION_DATE  = 
ORIGINATOR     = 

OBJECT_NAME    = 2026-023C
OBJECT_ID      = 2026-023C
CENTER_NAME    = EARTH
REF_FRAME      = TEME
TIME_SYSTEM    = UTC
MEAN_ELEMENT_THEORY = SGP/SGP4

EPOCH          = 2026-02-19T04:31:17.014368
MEAN_MOTION    = 15.22587309
ECCENTRICITY   = .0019215
INCLINATION    = 96.6428
RA_OF_ASC_NODE = 125.2966
ARG_OF_PERICENTER = 185.7819
MEAN_ANOMALY   = 174.3201

EPHEMERIS_TYPE = 0
CLASSIFICATION_TYPE = U
NORAD_CAT_ID   = 67676
ELEMENT_SET_NO = 999
REV_AT_EPOCH   = 220
BSTAR          = .44871E-3
MEAN_MOTION_DOT = .10422E-3
MEAN_MOTION_DDOT = 0

CCSDS_OMM_VERS = 2.0
CREATION_DATE  = 
ORIGINATOR     = 

OBJECT_NAME    = 2026-023D
OBJECT_ID      = 2026-023D
CENTER_NAME    = EARTH
REF_FRAME      = TEME
TIME_SYSTEM    = UTC
MEAN_ELEMENT_THEORY = SGP/SGP4

EPOCH          = 2026-02-19T04:32:47.430240
MEAN_MOTION    = 15.22445174
ECCENTRICITY   = .0019333
INCLINATION    = 96.6458
RA_OF_ASC_NODE = 125.2813
ARG_OF_PERICENTER = 191.0627
MEAN_ANOMALY   = 169.0189

EPHEMERIS_TYPE = 0
CLASSIFICATION_TYPE = U
NORAD_CAT_ID   = 67677
ELEMENT_SET_NO = 999
REV_AT_EPOCH   = 203
BSTAR          = .41374E-3
MEAN_MOTION_DOT = .9564E-4
MEAN_MOTION_DDOT = 0

CCSDS_OMM_VERS = 2.0
CREATION_DATE  = 
ORIGINATOR     = 

OBJECT_NAME    = 2026-023E
OBJECT_ID      = 2026-023E
CENTER_NAME    = EARTH
REF_FRAME      = TEME
TIME_SYSTEM    = UTC
MEAN_ELEMENT_THEORY = SGP/SGP4

EPOCH          = 2026-02-19T04:31:38.122752
MEAN_MOTION    = 15.22563909
ECCENTRICITY   = .0019174
INCLINATION    = 96.6352
RA_OF_ASC_NODE = 125.2795
ARG_OF_PERICENTER = 190.3289
MEAN_ANOMALY   = 169.7558

EPHEMERIS_TYPE = 0
CLASSIFICATION_TYPE = U
NORAD_CAT_ID   = 67678
ELEMENT_SET_NO = 999
REV_AT_EPOCH   = 203
BSTAR          = .4712E-3
MEAN_MOTION_DOT = .1094E-3
MEAN_MOTION_DDOT = 0

CCSDS_OMM_VERS = 2.0
CREATION_DATE  = 
ORIGINATOR     = 

OBJECT_NAME    = 2026-023F
OBJECT_ID      = 2026-023F
CENTER_NAME    = EARTH
REF_FRAME      = TEME
TIME_SYSTEM    = UTC
MEAN_ELEMENT_THEORY = SGP/SGP4

EPOCH          = 2026-02-19T04:29:52.498752
MEAN_MOTION    = 15.22702883
ECCENTRICITY   = .0021105
INCLINATION    = 96.6359
RA_OF_ASC_NODE = 127.7770
ARG_OF_PERICENTER = 185.2213
MEAN_ANOMALY   = 174.8808

EPHEMERIS_TYPE = 0
CLASSIFICATION_TYPE = U
NORAD_CAT_ID   = 67679
ELEMENT_SET_NO = 999
REV_AT_EPOCH   = 202
BSTAR          = .48063E-3
MEAN_MOTION_DOT = .11219E-3
MEAN_MOTION_DDOT = 0

