STARLINK-36622          
1 67667U 26022V   26050.16668981 -.00087762  00000+0 -59283-3 0  9993
2 67667  97.2840  83.2714 0001397  79.7250 358.7783 15.75218560  3913
STARLINK-36625          
1 67668U 26022W   26050.16668981 -.00055807  00000+0 -37555-3 0  9997
2 67668  97.2843  83.2752 0001399  90.8727 355.6370 15.75200818  3919
STARLINK-36639          
1 67669U 26022X   26050.16668981 -.00055414  00000+0 -37286-3 0  9993
2 67669  97.2845  83.2793 0001440  92.1345   4.3739 15.75201883  3915
STARLINK-36596          
1 67670U 26022Y   26050.16668981 -.00098650  00000+0 -66738-3 0  9998
2 67670  97.2848  83.2832 0001414  94.8587  11.6528 15.75217113  3912
STARLINK-36297          
1 67671U 26022Z   26050.16668981 -.00092998  00000+0 -62876-3 0  9997
2 67671  97.2849  83.2872 0001242  79.7084  38.7976 15.75214644  3914
STARLINK-36616          
1 67672U 26022AA  26050.16668981 -.00061524  00000+0 -41425-3 0  9996
2 67672  97.2850  83.2850 0001207  87.6196  22.8842 15.75208873  3919
COSMOS 2600             
1 67674U 26023A   26050.19369653  .00054626  00000+0  25796-3 0  9992
2 67674  96.6479 126.4135 0001215  52.1362 308.0018 15.82910529  2120
2026-023B               
1 67675U 26023B   26050.18892568  .00009458  00000+0  40868-3 0  9998
2 67675  96.6392 125.2817 0018009 196.1193 163.9475 15.22508766  2045
2026-023C               
1 67676U 26023C   26050.18839137  .00010422  00000+0  44871-3 0  9993
2 67676  96.6428 125.2966 0019215 185.7819 174.3201 15.22587309  2201
2026-023D               
1 67677U 26023D   26050.18943785  .00009564  00000+0  41374-3 0  9999
2 67677  96.6458 125.2813 0019333 191.0627 169.0189 15.22445174  2034
2026-023E               
1 67678U 26023E   26050.18863568  .00010940  00000+0  47120-3 0  9995
2 67678  96.6352 125.2795 0019174 190.3289 169.7558 15.22563909  2030
2026-023F               
1 67679U 26023F   26050.18741318  .00011219  00000+0  48063-3 0  9991
2 67679  96.6359 127.7770 0021105 185.2213 174.8808 15.22702883  2025
